start=new Date('2022-05-15T00:00:00.000Z').valueOf();
sats=[{"CLASSIFICATION_TYPE":"U","SITE":"AFETR","BSTAR":"0.00010669000000","CENTER_NAME":"EARTH","APOAPSIS":"548.756","ELEMENT_SET_NO":"999","MEAN_MOTION_DDOT":"0.0000000000000","COUNTRY_CODE":"US","PERIAPSIS":"545.667","RCS_SIZE":"LARGE","ARG_OF_PERICENTER":"47.9971","ECCENTRICITY":"0.00022300","SEMIMAJOR_AXIS":"6925.347","OBJECT_NAME":"STARLINK-1884","RA_OF_ASC_NODE":"84.5366","OBJECT_ID":"2020-088AX","MEAN_ANOMALY":"312.1208","GP_ID":"203528324","EPHEMERIS_TYPE":"0","NORAD_CAT_ID":"47167","REF_FRAME":"TEME","INCLINATION":"53.0545","FILE":"3445495","DECAY_DATE":null,"OBJECT_TYPE":"PAYLOAD","PERIOD":"95.592","MEAN_MOTION_DOT":"0.00001308","LAUNCH_DATE":"2020-11-25","REV_AT_EPOCH":"8156","EPOCH":"2022-05-14T13:43:27.863328","MEAN_MOTION":"15.06400668","TLE_LINE1":"1 47167U 20088AX  22134.57185027  .00001308  00000-0  10669-3 0  9997","TLE_LINE2":"2 47167  53.0545  84.5366 0002230  47.9971 312.1208 15.06400668 81568","MEAN_ELEMENT_THEORY":"SGP4","TIME_SYSTEM":"UTC"},{"RA_OF_ASC_NODE":"28.9969","ECCENTRICITY":"0.00021650","SEMIMAJOR_AXIS":"6676.769","OBJECT_NAME":"STARLINK-1885","MEAN_ANOMALY":"162.1199","GP_ID":"203563596","OBJECT_ID":"2020-088AY","CENTER_NAME":"EARTH","APOAPSIS":"300.079","ELEMENT_SET_NO":"999","COUNTRY_CODE":"US","MEAN_MOTION_DDOT":"0.0000511050000","CLASSIFICATION_TYPE":"U","SITE":"AFETR","BSTAR":"0.00100670000000","ARG_OF_PERICENTER":"197.9750","PERIAPSIS":"297.188","RCS_SIZE":"LARGE","EPOCH":"2022-05-14T21:19:07.766112","MEAN_MOTION":"15.91304428","LAUNCH_DATE":"2020-11-25","REV_AT_EPOCH":"8237","MEAN_ELEMENT_THEORY":"SGP4","TLE_LINE2":"2 47168  53.0496  28.9969 0002165 197.9750 162.1199 15.91304428 82376","TIME_SYSTEM":"UTC","TLE_LINE1":"1 47168U 20088AY  22134.88828433  .00326745  51105-4  10067-2 0  9999","REF_FRAME":"TEME","NORAD_CAT_ID":"47168","EPHEMERIS_TYPE":"0","DECAY_DATE":null,"PERIOD":"90.492","OBJECT_TYPE":"PAYLOAD","MEAN_MOTION_DOT":"0.00326745","INCLINATION":"53.0496","FILE":"3445938"},{"BSTAR":"0.00000565000000","SITE":"AFETR","CLASSIFICATION_TYPE":"U","COUNTRY_CODE":"US","MEAN_MOTION_DDOT":"0.0000000000000","ELEMENT_SET_NO":"999","APOAPSIS":"548.573","CENTER_NAME":"EARTH","RCS_SIZE":"LARGE","PERIAPSIS":"545.803","ARG_OF_PERICENTER":"47.4116","OBJECT_NAME":"STARLINK-1887","SEMIMAJOR_AXIS":"6925.323","ECCENTRICITY":"0.00020000","RA_OF_ASC_NODE":"83.4159","OBJECT_ID":"2020-088BA","GP_ID":"203563316","MEAN_ANOMALY":"312.7042","NORAD_CAT_ID":"47170","EPHEMERIS_TYPE":"0","REF_FRAME":"TEME","INCLINATION":"53.0551","FILE":"3445938","OBJECT_TYPE":"PAYLOAD","PERIOD":"95.592","MEAN_MOTION_DOT":"-0.00000198","DECAY_DATE":null,"REV_AT_EPOCH":"8160","LAUNCH_DATE":"2020-11-25","MEAN_MOTION":"15.06408430","EPOCH":"2022-05-14T19:44:23.092800","TLE_LINE1":"1 47170U 20088BA  22134.82248950 -.00000198  00000-0  56500-5 0  9997","TIME_SYSTEM":"UTC","TLE_LINE2":"2 47170  53.0551  83.4159 0002000  47.4116 312.7042 15.06408430 81600","MEAN_ELEMENT_THEORY":"SGP4"},{"TLE_LINE1":"1 47171U 20088BB  22134.24472785  .00000293  00000-0  38595-4 0  9997","TLE_LINE2":"2 47171  53.0562  76.0128 0002007  43.7565 316.3582 15.06391205 81656","MEAN_ELEMENT_THEORY":"SGP4","TIME_SYSTEM":"UTC","LAUNCH_DATE":"2020-11-25","REV_AT_EPOCH":"8165","EPOCH":"2022-05-14T05:52:24.486240","MEAN_MOTION":"15.06391205","INCLINATION":"53.0562","FILE":"3445495","DECAY_DATE":null,"PERIOD":"95.593","OBJECT_TYPE":"PAYLOAD","MEAN_MOTION_DOT":"0.00000293","EPHEMERIS_TYPE":"0","NORAD_CAT_ID":"47171","REF_FRAME":"TEME","OBJECT_ID":"2020-088BB","MEAN_ANOMALY":"316.3582","GP_ID":"203528075","ECCENTRICITY":"0.00020070","SEMIMAJOR_AXIS":"6925.376","OBJECT_NAME":"STARLINK-1888","RA_OF_ASC_NODE":"76.0128","PERIAPSIS":"545.851","RCS_SIZE":"LARGE","ARG_OF_PERICENTER":"43.7565","CLASSIFICATION_TYPE":"U","SITE":"AFETR","BSTAR":"0.00003859500000","CENTER_NAME":"EARTH","APOAPSIS":"548.630","ELEMENT_SET_NO":"999","COUNTRY_CODE":"US","MEAN_MOTION_DDOT":"0.0000000000000"},{"SEMIMAJOR_AXIS":"6925.332","ECCENTRICITY":"0.00026710","OBJECT_NAME":"STARLINK-1890","RA_OF_ASC_NODE":"83.3785","OBJECT_ID":"2020-088BD","MEAN_ANOMALY":"304.5313","GP_ID":"203562341","SITE":"AFETR","CLASSIFICATION_TYPE":"U","BSTAR":"-0.00000532430000","APOAPSIS":"549.047","CENTER_NAME":"EARTH","COUNTRY_CODE":"US","MEAN_MOTION_DDOT":"0.0000000000000","ELEMENT_SET_NO":"999","RCS_SIZE":"LARGE","PERIAPSIS":"545.348","ARG_OF_PERICENTER":"55.5928","REV_AT_EPOCH":"8160","LAUNCH_DATE":"2020-11-25","EPOCH":"2022-05-14T20:00:18.800352","MEAN_MOTION":"15.06405253","TLE_LINE1":"1 47173U 20088BD  22134.83355093 -.00000361  00000-0 -53243-5 0  9992","TLE_LINE2":"2 47173  53.0585  83.3785 0002671  55.5928 304.5313 15.06405253 81609","MEAN_ELEMENT_THEORY":"SGP4","TIME_SYSTEM":"UTC","EPHEMERIS_TYPE":"0","NORAD_CAT_ID":"47173","REF_FRAME":"TEME","FILE":"3445938","INCLINATION":"53.0585","DECAY_DATE":null,"OBJECT_TYPE":"PAYLOAD","PERIOD":"95.592","MEAN_MOTION_DOT":"-0.00000361"},{"DECAY_DATE":null,"MEAN_MOTION_DOT":"0.00002747","OBJECT_TYPE":"PAYLOAD","PERIOD":"95.592","FILE":"3445742","INCLINATION":"53.0538","REF_FRAME":"TEME","NORAD_CAT_ID":"47174","EPHEMERIS_TYPE":"0","TLE_LINE2":"2 47174  53.0538  84.5132 0002535  47.6384 312.4819 15.06407718 81858","MEAN_ELEMENT_THEORY":"SGP4","TIME_SYSTEM":"UTC","TLE_LINE1":"1 47174U 20088BE  22134.57921386  .00002747  00000-0  20325-3 0  9999","EPOCH":"2022-05-14T13:54:04.077504","MEAN_MOTION":"15.06407718","LAUNCH_DATE":"2020-11-25","REV_AT_EPOCH":"8185","ARG_OF_PERICENTER":"47.6384","PERIAPSIS":"545.434","RCS_SIZE":"LARGE","CENTER_NAME":"EARTH","APOAPSIS":"548.945","ELEMENT_SET_NO":"999","COUNTRY_CODE":"US","MEAN_MOTION_DDOT":"0.0000000000000","CLASSIFICATION_TYPE":"U","SITE":"AFETR","BSTAR":"0.00020325000000","MEAN_ANOMALY":"312.4819","GP_ID":"203536853","OBJECT_ID":"2020-088BE","RA_OF_ASC_NODE":"84.5132","ECCENTRICITY":"0.00025350","SEMIMAJOR_AXIS":"6925.325","OBJECT_NAME":"STARLINK-1891"},{"REF_FRAME":"TEME","EPHEMERIS_TYPE":"0","NORAD_CAT_ID":"47175","OBJECT_TYPE":"PAYLOAD","PERIOD":"95.592","MEAN_MOTION_DOT":"0.00000060","DECAY_DATE":null,"FILE":"3445495","INCLINATION":"53.0570","MEAN_MOTION":"15.06397188","EPOCH":"2022-05-14T12:15:53.273664","LAUNCH_DATE":"2020-11-25","REV_AT_EPOCH":"8183","TIME_SYSTEM":"UTC","MEAN_ELEMENT_THEORY":"SGP4","TLE_LINE2":"2 47175  53.0570  64.8186 0001946  55.7397 304.3776 15.06397188 81833","TLE_LINE1":"1 47175U 20088BF  22134.51103326  .00000060  00000-0  22910-4 0  9999","ELEMENT_SET_NO":"999","COUNTRY_CODE":"US","MEAN_MOTION_DDOT":"0.0000000000000","CENTER_NAME":"EARTH","APOAPSIS":"548.570","BSTAR":"0.00002291000000","CLASSIFICATION_TYPE":"U","SITE":"AFETR","ARG_OF_PERICENTER":"55.7397","PERIAPSIS":"545.875","RCS_SIZE":"LARGE","RA_OF_ASC_NODE":"64.8186","OBJECT_NAME":"STARLINK-1895","ECCENTRICITY":"0.00019460","SEMIMAJOR_AXIS":"6925.357","GP_ID":"203527324","MEAN_ANOMALY":"304.3776","OBJECT_ID":"2020-088BF"},{"MEAN_ELEMENT_THEORY":"SGP4","TLE_LINE2":"2 47177  53.0570  74.5921 0001942  56.0201 304.0972 15.06390356 81705","TIME_SYSTEM":"UTC","TLE_LINE1":"1 47177U 20088BH  22134.56172252 -.00000323  00000-0 -27551-5 0  9991","EPOCH":"2022-05-14T13:28:52.825728","MEAN_MOTION":"15.06390356","REV_AT_EPOCH":"8170","LAUNCH_DATE":"2020-11-25","DECAY_DATE":null,"MEAN_MOTION_DOT":"-0.00000323","OBJECT_TYPE":"PAYLOAD","PERIOD":"95.593","FILE":"3445495","INCLINATION":"53.0570","REF_FRAME":"TEME","EPHEMERIS_TYPE":"0","NORAD_CAT_ID":"47177","MEAN_ANOMALY":"304.0972","GP_ID":"203527576","OBJECT_ID":"2020-088BH","RA_OF_ASC_NODE":"74.5921","SEMIMAJOR_AXIS":"6925.378","ECCENTRICITY":"0.00019420","OBJECT_NAME":"STARLINK-1907","ARG_OF_PERICENTER":"56.0201","RCS_SIZE":"LARGE","PERIAPSIS":"545.898","APOAPSIS":"548.588","CENTER_NAME":"EARTH","MEAN_MOTION_DDOT":"0.0000000000000","COUNTRY_CODE":"US","ELEMENT_SET_NO":"999","SITE":"AFETR","CLASSIFICATION_TYPE":"U","BSTAR":"-0.00000275510000"},{"TLE_LINE1":"1 47178U 20088BJ  22134.27697948 -.00000393  00000-0 -75084-5 0  9995","TIME_SYSTEM":"UTC","MEAN_ELEMENT_THEORY":"SGP4","TLE_LINE2":"2 47178  53.0557  85.8640 0001846  46.9065 313.2078 15.06394997 81516","LAUNCH_DATE":"2020-11-25","REV_AT_EPOCH":"8151","MEAN_MOTION":"15.06394997","EPOCH":"2022-05-14T06:38:51.027072","FILE":"3445495","INCLINATION":"53.0557","PERIOD":"95.592","OBJECT_TYPE":"PAYLOAD","MEAN_MOTION_DOT":"-0.00000393","DECAY_DATE":null,"EPHEMERIS_TYPE":"0","NORAD_CAT_ID":"47178","REF_FRAME":"TEME","OBJECT_ID":"2020-088BJ","GP_ID":"203528325","MEAN_ANOMALY":"313.2078","OBJECT_NAME":"STARLINK-1912","ECCENTRICITY":"0.00018460","SEMIMAJOR_AXIS":"6925.364","RA_OF_ASC_NODE":"85.8640","PERIAPSIS":"545.950","RCS_SIZE":"LARGE","ARG_OF_PERICENTER":"46.9065","BSTAR":"-0.00000750840000","CLASSIFICATION_TYPE":"U","SITE":"AFETR","ELEMENT_SET_NO":"999","COUNTRY_CODE":"US","MEAN_MOTION_DDOT":"0.0000000000000","CENTER_NAME":"EARTH","APOAPSIS":"548.507"},{"COUNTRY_CODE":"US","MEAN_MOTION_DDOT":"0.0000000000000","ELEMENT_SET_NO":"999","APOAPSIS":"548.600","CENTER_NAME":"EARTH","BSTAR":"0.00009940700000","SITE":"AFETR","CLASSIFICATION_TYPE":"U","ARG_OF_PERICENTER":"59.8333","RCS_SIZE":"LARGE","PERIAPSIS":"545.862","RA_OF_ASC_NODE":"94.4218","OBJECT_NAME":"STARLINK-1913","SEMIMAJOR_AXIS":"6925.366","ECCENTRICITY":"0.00019770","GP_ID":"203563597","MEAN_ANOMALY":"300.2852","OBJECT_ID":"2020-088BK","REF_FRAME":"TEME","NORAD_CAT_ID":"47179","EPHEMERIS_TYPE":"0","MEAN_MOTION_DOT":"0.00001199","OBJECT_TYPE":"PAYLOAD","PERIOD":"95.592","DECAY_DATE":null,"FILE":"3445938","INCLINATION":"53.0575","MEAN_MOTION":"15.06394394","EPOCH":"2022-05-14T14:19:17.902272","REV_AT_EPOCH":"8142","LAUNCH_DATE":"2020-11-25","TIME_SYSTEM":"UTC","TLE_LINE2":"2 47179  53.0575  94.4218 0001977  59.8333 300.2852 15.06394394 81427","MEAN_ELEMENT_THEORY":"SGP4","TLE_LINE1":"1 47179U 20088BK  22134.59673498  .00001199  00000-0  99407-4 0  9992"}];
